[{"OBJECT_NAME":"IRIDIUM 148","OBJECT_ID":"2018-030G","EPOCH":"2026-03-09T17:19:11.405856","MEAN_MOTION":14.34218043,"ECCENTRICITY":0.00021734,"INCLINATION":86.4007,"RA_OF_ASC_NODE":332.0603,"ARG_OF_PERICENTER":85.9806,"MEAN_ANOMALY":274.1638,"EPHEMERIS_TYPE":0,"CLASSIFICATION_TYPE":"U","NORAD_CAT_ID":43255,"ELEMENT_SET_NO":999,"REV_AT_EPOCH":41591,"BSTAR":1.8722771e-5,"MEAN_MOTION_DOT":7.2e-7,"MEAN_MOTION_DDOT":0},{"OBJECT_NAME":"NOAA 16 DEB","OBJECT_ID":"2000-055SC","EPOCH":"2026-03-07T10:57:41.170464","MEAN_MOTION":14.3312953,"ECCENTRICITY":0.00137342,"INCLINATION":98.665,"RA_OF_ASC_NODE":144.3126,"ARG_OF_PERICENTER":235.189,"MEAN_ANOMALY":124.8002,"EPHEMERIS_TYPE":0,"CLASSIFICATION_TYPE":"U","NORAD_CAT_ID":42384,"ELEMENT_SET_NO":999,"REV_AT_EPOCH":51740,"BSTAR":0.0023724243,"MEAN_MOTION_DOT":6.477e-5,"MEAN_MOTION_DDOT":0}]
